[{"OBJECT_NAME":"JILIN-1 GAOFEN 03D54","OBJECT_ID":"2022-155D","EPOCH":"2026-03-09T23:37:20.443296","MEAN_MOTION":15.68305206,"ECCENTRICITY":0.00027254,"INCLINATION":97.6021,"RA_OF_ASC_NODE":211.7883,"ARG_OF_PERICENTER":319.8773,"MEAN_ANOMALY":40.2286,"EPHEMERIS_TYPE":0,"CLASSIFICATION_TYPE":"U","NORAD_CAT_ID":54254,"ELEMENT_SET_NO":999,"REV_AT_EPOCH":18463,"BSTAR":0.00092591646,"MEAN_MOTION_DOT":0.00104667,"MEAN_MOTION_DDOT":0},{"OBJECT_NAME":"STARLINK-11329 [DTC]","OBJECT_ID":"2024-204H","EPOCH":"2026-03-09T22:31:02.271072","MEAN_MOTION":15.69662564,"ECCENTRICITY":0.00020305,"INCLINATION":53.1587,"RA_OF_ASC_NODE":355.0346,"ARG_OF_PERICENTER":32.3174,"MEAN_ANOMALY":327.7968,"EPHEMERIS_TYPE":0,"CLASSIFICATION_TYPE":"U","NORAD_CAT_ID":61881,"ELEMENT_SET_NO":999,"REV_AT_EPOCH":7695,"BSTAR":9.849514e-6,"MEAN_MOTION_DOT":6.01e-6,"MEAN_MOTION_DDOT":0}]
